{
  "type": "FeatureCollection",
  "features": [
    {
      "type": "Feature",
      "properties": {
        "norad_id": 66640,
        "name": "STARLINK-35921",
        "group": "last-30-days",
        "lat": -32.579674151669224,
        "lon": 160.51525007763652,
        "alt_km": 416.38591638645175,
        "timestamp": "2025-12-12T07:43:19.258946+00:00",
        "meta_object_name": "STARLINK-35921",
        "meta_object_id": "2025-271Z",
        "meta_epoch": "2025-12-11T20:00:01.999872",
        "meta_mean_motion": 15.53791123,
        "meta_eccentricity": 9.618e-05,
        "meta_inclination": 53.1595,
        "meta_ra_of_asc_node": 191.4897,
        "meta_arg_of_pericenter": 90.8332,
        "meta_mean_anomaly": 15.4188,
        "meta_ephemeris_type": 0,
        "meta_classification_type": "U",
        "meta_norad_cat_id": 66640,
        "meta_element_set_no": 999,
        "meta_rev_at_epoch": 409,
        "meta_bstar": -0.035289773,
        "meta_mean_motion_dot": -0.02054635,
        "meta_mean_motion_ddot": 0,
        "tle_line1": "1 66640U 25271Z   25345.83335648 -.02054635  00000+0 -35290-1 0  9994",
        "tle_line2": "2 66640  53.1595 191.4897 0000961  90.8332  15.4188 15.53791123  4099"
      },
      "geometry": {
        "type": "Point",
        "coordinates": [
          160.51525007763652,
          -32.579674151669224
        ]
      }
    },
    {
      "type": "Feature",
      "properties": {
        "norad_id": 66641,
        "name": "STARLINK-35923",
        "group": "last-30-days",
        "lat": -27.051305937211428,
        "lon": 166.61413086266418,
        "alt_km": 415.9650034820861,
        "timestamp": "2025-12-12T07:43:19.258961+00:00",
        "meta_object_name": "STARLINK-35923",
        "meta_object_id": "2025-271AA",
        "meta_epoch": "2025-12-11T20:00:01.999872",
        "meta_mean_motion": 15.53790219,
        "meta_eccentricity": 9.128e-05,
        "meta_inclination": 53.1591,
        "meta_ra_of_asc_node": 191.4729,
        "meta_arg_of_pericenter": 95.1241,
        "meta_mean_anomaly": 18.7936,
        "meta_ephemeris_type": 0,
        "meta_classification_type": "U",
        "meta_norad_cat_id": 66641,
        "meta_element_set_no": 999,
        "meta_rev_at_epoch": 409,
        "meta_bstar": -0.035230462,
        "meta_mean_motion_dot": -0.02051466,
        "meta_mean_motion_ddot": 0,
        "tle_line1": "1 66641U 25271AA  25345.83335648 -.02051466  00000+0 -35230-1 0  9998",
        "tle_line2": "2 66641  53.1591 191.4729 0000912  95.1241  18.7936 15.53790219  4095"
      },
      "geometry": {
        "type": "Point",
        "coordinates": [
          166.61413086266418,
          -27.051305937211428
        ]
      }
    },
    {
      "type": "Feature",
      "properties": {
        "norad_id": 66642,
        "name": "STARLINK-35926",
        "group": "last-30-days",
        "lat": -28.461416742277628,
        "lon": 165.14944347690934,
        "alt_km": 416.1504883379421,
        "timestamp": "2025-12-12T07:43:19.258972+00:00",
        "meta_object_name": "STARLINK-35926",
        "meta_object_id": "2025-271AB",
        "meta_epoch": "2025-12-11T20:00:01.999872",
        "meta_mean_motion": 15.53793046,
        "meta_eccentricity": 0.00010723,
        "meta_inclination": 53.1596,
        "meta_ra_of_asc_node": 191.4772,
        "meta_arg_of_pericenter": 78.8373,
        "meta_mean_anomaly": 33.1646,
        "meta_ephemeris_type": 0,
        "meta_classification_type": "U",
        "meta_norad_cat_id": 66642,
        "meta_element_set_no": 999,
        "meta_rev_at_epoch": 386,
        "meta_bstar": -0.035376465,
        "meta_mean_motion_dot": -0.02059331,
        "meta_mean_motion_ddot": 0,
        "tle_line1": "1 66642U 25271AB  25345.83335648 -.02059331  00000+0 -35376-1 0  9999",
        "tle_line2": "2 66642  53.1596 191.4772 0001072  78.8373  33.1646 15.53793046  3865"
      },
      "geometry": {
        "type": "Point",
        "coordinates": [
          165.14944347690934,
          -28.461416742277628
        ]
      }
    },
    {
      "type": "Feature",
      "properties": {
        "norad_id": 66643,
        "name": "STARLINK-35918",
        "group": "last-30-days",
        "lat": -31.225282811365435,
        "lon": 162.10416859393547,
        "alt_km": 416.35259473602946,
        "timestamp": "2025-12-12T07:43:19.258982+00:00",
        "meta_object_name": "STARLINK-35918",
        "meta_object_id": "2025-271AC",
        "meta_epoch": "2025-12-11T20:00:01.999872",
        "meta_mean_motion": 15.53790878,
        "meta_eccentricity": 0.00010079,
        "meta_inclination": 53.1595,
        "meta_ra_of_asc_node": 191.4852,
        "meta_arg_of_pericenter": 79.802,
        "meta_mean_anomaly": 28.3669,
        "meta_ephemeris_type": 0,
        "meta_classification_type": "U",
        "meta_norad_cat_id": 66643,
        "meta_element_set_no": 999,
        "meta_rev_at_epoch": 409,
        "meta_bstar": -0.035302469,
        "meta_mean_motion_dot": -0.02055305,
        "meta_mean_motion_ddot": 0,
        "tle_line1": "1 66643U 25271AC  25345.83335648 -.02055305  00000+0 -35302-1 0  9996",
        "tle_line2": "2 66643  53.1595 191.4852 0001007  79.8020  28.3669 15.53790878  4099"
      },
      "geometry": {
        "type": "Point",
        "coordinates": [
          162.10416859393547,
          -31.225282811365435
        ]
      }
    },
    {
      "type": "Feature",
      "properties": {
        "norad_id": 66644,
        "name": "STARLINK-35938",
        "group": "last-30-days",
        "lat": -29.852527069740685,
        "lon": 163.64784768098752,
        "alt_km": 416.2443060244623,
        "timestamp": "2025-12-12T07:43:19.258992+00:00",
        "meta_object_name": "STARLINK-35938",
        "meta_object_id": "2025-271AD",
        "meta_epoch": "2025-12-11T20:00:01.999872",
        "meta_mean_motion": 15.53789435,
        "meta_eccentricity": 0.00011263,
        "meta_inclination": 53.1594,
        "meta_ra_of_asc_node": 191.4817,
        "meta_arg_of_pericenter": 75.3688,
        "meta_mean_anomaly": 34.7187,
        "meta_ephemeris_type": 0,
        "meta_classification_type": "U",
        "meta_norad_cat_id": 66644,
        "meta_element_set_no": 999,
        "meta_rev_at_epoch": 409,
        "meta_bstar": -0.035286543,
        "meta_mean_motion_dot": -0.02054453,
        "meta_mean_motion_ddot": 0,
        "tle_line1": "1 66644U 25271AD  25345.83335648 -.02054453  00000+0 -35287-1 0  9992",
        "tle_line2": "2 66644  53.1594 191.4817 0001126  75.3688  34.7187 15.53789435  4096"
      },
      "geometry": {
        "type": "Point",
        "coordinates": [
          163.64784768098752,
          -29.852527069740685
        ]
      }
    },
    {
      "type": "Feature",
      "properties": {
        "norad_id": 66645,
        "name": "SHENZHOU-22",
        "group": "last-30-days",
        "lat": -29.647742360146736,
        "lon": -20.885400919373456,
        "alt_km": 391.08460025457407,
        "timestamp": "2025-12-12T07:43:19.259002+00:00",
        "meta_object_name": "SHENZHOU-22",
        "meta_object_id": "2025-272A",
        "meta_epoch": "2025-12-11T19:37:47.505216",
        "meta_mean_motion": 15.59116827,
        "meta_eccentricity": 0.00085427,
        "meta_inclination": 41.4685,
        "meta_ra_of_asc_node": 22.304,
        "meta_arg_of_pericenter": 22.5495,
        "meta_mean_anomaly": 337.5718,
        "meta_ephemeris_type": 0,
        "meta_classification_type": "U",
        "meta_norad_cat_id": 66645,
        "meta_element_set_no": 999,
        "meta_rev_at_epoch": 26357,
        "meta_bstar": 0.00035527983,
        "meta_mean_motion_dot": 0.00028382,
        "meta_mean_motion_ddot": 0,
        "tle_line1": "1 66645U 25272A   25345.81791094  .00028382  00000+0  35528-3 0  9991",
        "tle_line2": "2 66645  41.4685  22.3040 0008542  22.5495 337.5718 15.59116827263576"
      },
      "geometry": {
        "type": "Point",
        "coordinates": [
          -20.885400919373456,
          -29.647742360146736
        ]
      }
    },
    {
      "type": "Feature",
      "properties": {
        "norad_id": 66647,
        "name": "COSMOS 2597 (RODNIK-S 22)",
        "group": "last-30-days",
        "lat": 40.58391955144972,
        "lon": -66.81171338865889,
        "alt_km": 1497.2021632001424,
        "timestamp": "2025-12-12T07:43:19.259013+00:00",
        "meta_object_name": "COSMOS 2597 (RODNIK-S 22)",
        "meta_object_id": "2025-273A",
        "meta_epoch": "2025-12-11T23:46:06.265056",
        "meta_mean_motion": 12.41951295,
        "meta_eccentricity": 0.00079029,
        "meta_inclination": 82.499,
        "meta_ra_of_asc_node": 286.9143,
        "meta_arg_of_pericenter": 290.9761,
        "meta_mean_anomaly": 69.0472,
        "meta_ephemeris_type": 0,
        "meta_classification_type": "U",
        "meta_norad_cat_id": 66647,
        "meta_element_set_no": 999,
        "meta_rev_at_epoch": 204,
        "meta_bstar": 0.00010498762,
        "meta_mean_motion_dot": 2.4e-07,
        "meta_mean_motion_ddot": 0,
        "tle_line1": "1 66647U 25273A   25345.99035029  .00000024  00000+0  10499-3 0  9995",
        "tle_line2": "2 66647  82.4990 286.9143 0007902 290.9761  69.0472 12.41951295  2041"
      },
      "geometry": {
        "type": "Point",
        "coordinates": [
          -66.81171338865889,
          40.58391955144972
        ]
      }
    }
  ]
}